$$SOE
2460154.500000000, A.D. 2023-Jul-29 00:00:00.0000, -2.987112867889192E+08, -2.492916907899228E+08, 1.272651893315035E+07,
2460161.500000000, A.D. 2023-Aug-05 00:00:00.0000, -2.909776522991861E+08, -2.574315401959273E+08, 1.211156042021714E+07,
2460168.500000000, A.D. 2023-Aug-12 00:00:00.0000, -2.830035644504136E+08, -2.653586107444126E+08, 1.148659277672715E+07,
2460175.500000000, A.D. 2023-Aug-19 00:00:00.0000, -2.747945737057168E+08, -2.730653742817953E+08, 1.085209038585694E+07,
2460182.500000000, A.D. 2023-Aug-26 00:00:00.0000, -2.663564862629519E+08, -2.805444297210963E+08, 1.020854021848708E+07,
2460189.500000000, A.D. 2023-Sep-02 00:00:00.0000, -2.576953626238914E+08, -2.877885127621530E+08, 9.556441558458760E+06,
2460196.500000000, A.D. 2023-Sep-09 00:00:00.0000, -2.488175157417425E+08, -2.947905058365871E+08, 8.896305690207481E+06,
2460203.500000000, A.D. 2023-Sep-16 00:00:00.0000, -2.397295085639211E+08, -3.015434483172882E+08, 8.228655528174505E+06,
2460210.500000000, A.D. 2023-Sep-23 00:00:00.0000, -2.304381505396432E+08, -3.080405466860179E+08, 7.554025172890887E+06,
2460217.500000000, A.D. 2023-Sep-30 00:00:00.0000, -2.209504934185191E+08, -3.142751834469968E+08, 6.872959521933734E+06,
2460224.500000000, A.D. 2023-Oct-07 00:00:00.0000, -2.112738286805432E+08, -3.202409253060604E+08, 6.186014107034907E+06,
2460231.500000000, A.D. 2023-Oct-14 00:00:00.0000, -2.014156855451742E+08, -3.259315339056435E+08, 5.493754790972009E+06,
2460238.500000000, A.D. 2023-Oct-21 00:00:00.0000, -1.913838263216767E+08, -3.313409774906011E+08, 4.796757159158662E+06,
2460245.500000000, A.D. 2023-Oct-28 00:00:00.0000, -1.811862405180031E+08, -3.364634412199563E+08, 4.095605921695009E+06,
2460252.500000000, A.D. 2023-Nov-04 00:00:00.0000, -1.708311389517145E+08, -3.412933368671935E+08, 3.390894378082007E+06,
2460259.500000000, A.D. 2023-Nov-11 00:00:00.0000, -1.603269476794408E+08, -3.458253124795071E+08, 2.683223879775167E+06,
2460266.500000000, A.D. 2023-Nov-18 00:00:00.0000, -1.496823015202785E+08, -3.500542620303695E+08, 1.973203265625745E+06,
2460273.500000000, A.D. 2023-Nov-25 00:00:00.0000, -1.389060370969796E+08, -3.539753350135396E+08, 1.261448265867546E+06,
2460280.500000000, A.D. 2023-Dec-02 00:00:00.0000, -1.280071853663305E+08, -3.575839459606619E+08, 5.485808718646467E+05,
2460287.500000000, A.D. 2023-Dec-09 00:00:00.0000, -1.169949635632163E+08, -3.608757839113771E+08, -1.647713394274414E+05,
2460294.500000000, A.D. 2023-Dec-16 00:00:00.0000, -1.058787662751254E+08, -3.638468217922194E+08, -8.779759506675005E+05,
2460301.500000000, A.D. 2023-Dec-23 00:00:00.0000, -9.466815530477192E+07, -3.664933249849678E+08, -1.590396493802339E+06,
2460308.500000000, A.D. 2023-Dec-30 00:00:00.0000, -8.337284966903292E+07, -3.688118580023112E+08, -2.301393074532062E+06,
2460315.500000000, A.D. 2024-Jan-06 00:00:00.0000, -7.200271751574500E+07, -3.707992915978394E+08, -3.010322860980988E+06,
2460322.500000000, A.D. 2024-Jan-13 00:00:00.0000, -6.056776679624227E+07, -3.724528120858329E+08, -3.716540874327123E+06,
2460329.500000000, A.D. 2024-Jan-20 00:00:00.0000, -4.907813348428894E+07, -3.737699297577090E+08, -4.419400940348983E+06,
2460336.500000000, A.D. 2024-Jan-27 00:00:00.0000, -3.754406938765045E+07, -3.747484857143880E+08, -5.118256561065048E+06,
2460343.500000000, A.D. 2024-Feb-03 00:00:00.0000, -2.597593000075526E+07, -3.753866580344757E+08, -5.812461743132383E+06,
2460350.500000000, A.D. 2024-Feb-10 00:00:00.0000, -1.438416214421978E+07, -3.756829675408863E+08, -6.501371830521137E+06,
2460357.500000000, A.D. 2024-Feb-17 00:00:00.0000, -2.779291278696253E+06, -3.756362831287802E+08, -7.184344351672500E+06,
2460364.500000000, A.D. 2024-Feb-24 00:00:00.0000, 8.828091514924569E+06, -3.752458266096919E+08, -7.860739881241471E+06,
2460371.500000000, A.D. 2024-Mar-02 00:00:00.0000, 2.042734288996013E+07, -3.745111770741647E+08, -8.529922919638097E+06,
2460378.500000000, A.D. 2024-Mar-09 00:00:00.0000, 3.200778103380451E+07, -3.734322748080727E+08, -9.191262806005925E+06,
2460385.500000000, A.D. 2024-Mar-16 00:00:00.0000, 4.355870028029965E+07, -3.720094245428224E+08, -9.844134682585061E+06,
2460392.500000000, A.D. 2024-Mar-23 00:00:00.0000, 5.506938640036745E+07, -3.702432969140014E+08, -1.048792040818724E+07,
2460399.500000000, A.D. 2024-Mar-30 00:00:00.0000, 6.652913029457553E+07, -3.681349281420964E+08, -1.112200921517345E+07,
2460406.500000000, A.D. 2024-Apr-06 00:00:00.0000, 7.792724030522004E+07, -3.656857212896079E+08, -1.174579840628648E+07,
2460413.500000000, A.D. 2024-Apr-13 00:00:00.0000, 8.925305665963472E+07, -3.628974482465870E+08, -1.235869434623322E+07,
2460420.500000000, A.D. 2024-Apr-20 00:00:00.0000, 1.004959670519779E+08, -3.597722497590482E+08, -1.296011343928634E+07,
2460427.500000000, A.D. 2024-Apr-27 00:00:00.0000, 1.116454218050460E+08, -3.563126340538258E+08, -1.354948299692297E+07,
2460434.500000000, A.D. 2024-May-04 00:00:00.0000, 1.226909486585514E+08, -3.525214747573122E+08, -1.412624205837516E+07,
2460441.500000000, A.D. 2024-May-11 00:00:00.0000, 1.336221673805065E+08, -3.484020082068847E+08, -1.468984219162969E+07,
2460448.500000000, A.D. 2024-May-18 00:00:00.0000, 1.444288042414239E+08, -3.439578301332029E+08, -1.523974827801746E+07,
2460455.500000000, A.D. 2024-May-25 00:00:00.0000, 1.551007063336953E+08, -3.391928917224715E+08, -1.577543928071316E+07,
2460462.500000000, A.D. 2024-Jun-01 00:00:00.0000, 1.656278557549139E+08, -3.341114951207992E+08, -1.629640900489517E+07,
2460469.500000000, A.D. 2024-Jun-08 00:00:00.0000, 1.760003838621161E+08, -3.287182884129813E+08, -1.680216687163137E+07,
2460476.500000000, A.D. 2024-Jun-15 00:00:00.0000, 1.862085859574567E+08, -3.230182595452179E+08, -1.729223869516708E+07,
2460483.500000000, A.D. 2024-Jun-22 00:00:00.0000, 1.962429353603143E+08, -3.170167280344317E+08, -1.776616727305008E+07,
2460490.500000000, A.D. 2024-Jun-29 00:00:00.0000, 2.060940947039463E+08, -3.107193363031006E+08, -1.822351274117115E+07,
2460497.500000000, A.D. 2024-Jul-06 00:00:00.0000, 2.157529270633748E+08, -3.041320431290976E+08, -1.866385313640849E+07,
2460504.500000000, A.D. 2024-Jul-13 00:00:00.0000, 2.252105088289163E+08, -2.972611164092996E+08, -1.908678511322092E+07,
2460511.500000000, A.D. 2024-Jul-20 00:00:00.0000, 2.344581423061780E+08, -2.901131241157107E+08, -1.949192453663926E+07,
2460518.500000000, A.D. 2024-Jul-27 00:00:00.0000, 2.434873673534106E+08, -2.826949244325265E+08, -1.987890696845250E+07,
2460525.500000000, A.D. 2024-Aug-03 00:00:00.0000, 2.522899722975254E+08, -2.750136554787200E+08, -2.024738810091057E+07,
2460532.500000000, A.D. 2024-Aug-10 00:00:00.0000, 2.608580042653635E+08, -2.670767246511188E+08, -2.059704415227877E+07,
2460539.500000000, A.D. 2024-Aug-17 00:00:00.0000, 2.691837789513241E+08, -2.588917975979248E+08, -2.092757222578160E+07,
2460546.500000000, A.D. 2024-Aug-24 00:00:00.0000, 2.772598898259358E+08, -2.504667868778026E+08, -2.123869063564970E+07,
2460553.500000000, A.D. 2024-Aug-31 00:00:00.0000, 2.850792168811046E+08, -2.418098403996872E+08, -2.153013921569733E+07,
2460560.500000000, A.D. 2024-Sep-07 00:00:00.0000, 2.926349352626585E+08, -2.329293295523036E+08, -2.180167963382779E+07,
2460567.500000000, A.D. 2024-Sep-14 00:00:00.0000, 2.999205238656303E+08, -2.238338360674468E+08, -2.205309563937211E+07,
2460574.500000000, A.D. 2024-Sep-21 00:00:00.0000, 3.069297718545564E+08, -2.145321372483933E+08, -2.228419302411750E+07,
2460581.500000000, A.D. 2024-Sep-28 00:00:00.0000, 3.136567826103013E+08, -2.050331928331091E+08, -2.249479951678689E+07,
2460588.500000000, A.D. 2024-Oct-05 00:00:00.0000, 3.200959787639983E+08, -1.953461335284790E+08, -2.268476494804935E+07,
2460595.500000000, A.D. 2024-Oct-12 00:00:00.0000, 3.262421079542528E+08, -1.854802482736998E+08, -2.285396141009395E+07,
2460602.500000000, A.D. 2024-Oct-19 00:00:00.0000, 3.320902475572352E+08, -1.754449705432857E+08, -2.300228327305885E+07,
2460609.500000000, A.D. 2024-Oct-26 00:00:00.0000, 3.376358083600768E+08, -1.652498645304335E+08, -2.312964712171838E+07,
2460616.500000000, A.D. 2024-Nov-02 00:00:00.0000, 3.428745374399135E+08, -1.549046113979760E+08, -2.323599164914194E+07,
2460623.500000000, A.D. 2024-Nov-09 00:00:00.0000, 3.478025203517817E+08, -1.444189956146970E+08, -2.332127751553155E+07,
2460630.500000000, A.D. 2024-Nov-16 00:00:00.0000, 3.524161826583026E+08, -1.338028914142784E+08, -2.338548717561757E+07,
2460637.500000000, A.D. 2024-Nov-23 00:00:00.0000, 3.567122908547815E+08, -1.230662494618946E+08, -2.342862468399146E+07,
2460644.500000000, A.D. 2024-Nov-30 00:00:00.0000, 3.606879529051644E+08, -1.122190838017155E+08, -2.345071550200882E+07,
2460651.500000000, A.D. 2024-Dec-07 00:00:00.0000, 3.643406188202443E+08, -1.012714586899221E+08, -2.345180631153120E+07,
2460658.500000000, A.D. 2024-Dec-14 00:00:00.0000, 3.676680806122226E+08, -9.023347411397448E+07, -2.343196467382015E+07,
2460665.500000000, A.D. 2024-Dec-21 00:00:00.0000, 3.706684693361972E+08, -7.911525126989843E+07, -2.339127842435297E+07,
2460672.500000000, A.D. 2024-Dec-28 00:00:00.0000, 3.733402512146307E+08, -6.792692099750876E+07, -2.332985522904901E+07,
2460679.500000000, A.D. 2025-Jan-04 00:00:00.0000, 3.756822254615772E+08, -5.667861282457256E+07, -2.324782234755278E+07,
2460686.500000000, A.D. 2025-Jan-11 00:00:00.0000, 3.776935220073604E+08, -4.538044298379838E+07, -2.314532630231904E+07,
2460693.500000000, A.D. 2025-Jan-18 00:00:00.0000, 3.793735982302917E+08, -3.404250234330618E+07, -2.302253244595854E+07,
2460700.500000000, A.D. 2025-Jan-25 00:00:00.0000, 3.807222349628819E+08, -2.267484474455446E+07, -2.287962448945935E+07,
2460707.500000000, A.D. 2025-Feb-01 00:00:00.0000, 3.817395319867635E+08, -1.128747579489796E+07, -2.271680401263965E+07,
2460714.500000000, A.D. 2025-Feb-08 00:00:00.0000, 3.824259031003519E+08, 1.096578899420286E+05, -2.253428996212506E+07,
$$EOE